start=new Date('2023-02-03T00:00:00.000Z').valueOf();
sats=[{"ELEMENT_SET_NO":"999","PERIOD":"95.439","BSTAR":"-0.00010663000000","GP_ID":"224263627","APOAPSIS":"540.520","EPHEMERIS_TYPE":"0","MEAN_MOTION":"15.08822073","NORAD_CAT_ID":"53399","OBJECT_ID":"2022-097M","EPOCH":"2023-02-02T12:12:24.247008","ARG_OF_PERICENTER":"87.2484","RA_OF_ASC_NODE":"162.1994","TLE_LINE2":"2 53399  53.2177 162.1994 0001040  87.2484 272.8628 15.08822073 27253","SEMIMAJOR_AXIS":"6917.935","LAUNCH_DATE":"2022-08-10","OBJECT_NAME":"STARLINK-4528","TLE_LINE1":"1 53399U 22097M   23033.50861397 -.00001983  00000-0 -10663-3 0  9991","MEAN_ANOMALY":"272.8628","DECAY_DATE":null,"CLASSIFICATION_TYPE":"U","MEAN_MOTION_DOT":"-0.00001983","OBJECT_TYPE":"PAYLOAD","MEAN_ELEMENT_THEORY":"SGP4","REV_AT_EPOCH":"2725","ECCENTRICITY":"0.00010400","PERIAPSIS":"539.081","CENTER_NAME":"EARTH","TIME_SYSTEM":"UTC","RCS_SIZE":"LARGE","INCLINATION":"53.2177","SITE":"AFETR","FILE":"3769192","MEAN_MOTION_DDOT":"0.0000000000000","REF_FRAME":"TEME","COUNTRY_CODE":"US"},{"APOAPSIS":"540.533","EPHEMERIS_TYPE":"0","MEAN_MOTION":"15.08836389","NORAD_CAT_ID":"53400","BSTAR":"-0.00001073700000","GP_ID":"224263127","ELEMENT_SET_NO":"999","PERIOD":"95.438","LAUNCH_DATE":"2022-08-10","RA_OF_ASC_NODE":"161.9971","SEMIMAJOR_AXIS":"6917.891","TLE_LINE2":"2 53400  53.2173 161.9971 0001122  92.0531 268.0590 15.08836389 27263","EPOCH":"2023-02-02T13:15:58.829472","ARG_OF_PERICENTER":"92.0531","OBJECT_ID":"2022-097N","REV_AT_EPOCH":"2726","ECCENTRICITY":"0.00011220","PERIAPSIS":"538.980","MEAN_ELEMENT_THEORY":"SGP4","MEAN_MOTION_DOT":"-0.00000459","OBJECT_TYPE":"PAYLOAD","OBJECT_NAME":"STARLINK-4520","TLE_LINE1":"1 53400U 22097N   23033.55276423 -.00000459  00000-0 -10737-4 0  9999","DECAY_DATE":null,"MEAN_ANOMALY":"268.0590","CLASSIFICATION_TYPE":"U","MEAN_MOTION_DDOT":"0.0000000000000","REF_FRAME":"TEME","COUNTRY_CODE":"US","SITE":"AFETR","FILE":"3769192","INCLINATION":"53.2173","TIME_SYSTEM":"UTC","CENTER_NAME":"EARTH","RCS_SIZE":"LARGE"},{"RCS_SIZE":"LARGE","CENTER_NAME":"EARTH","TIME_SYSTEM":"UTC","INCLINATION":"53.2168","FILE":"3768366","SITE":"AFETR","COUNTRY_CODE":"US","REF_FRAME":"TEME","MEAN_MOTION_DDOT":"0.0000000000000","CLASSIFICATION_TYPE":"U","TLE_LINE1":"1 53401U 22097P   23033.50124992  .00007016  00000-0  45890-3 0  9999","MEAN_ANOMALY":"240.6916","DECAY_DATE":null,"OBJECT_NAME":"STARLINK-4525","OBJECT_TYPE":"PAYLOAD","MEAN_MOTION_DOT":"0.00007016","MEAN_ELEMENT_THEORY":"SGP4","PERIAPSIS":"539.014","ECCENTRICITY":"0.00012250","REV_AT_EPOCH":"2774","OBJECT_ID":"2022-097P","ARG_OF_PERICENTER":"119.4199","EPOCH":"2023-02-02T12:01:47.993088","TLE_LINE2":"2 53401  53.2168 162.2298 0001225 119.4199 240.6916 15.08801943 27741","SEMIMAJOR_AXIS":"6917.997","RA_OF_ASC_NODE":"162.2298","LAUNCH_DATE":"2022-08-10","ELEMENT_SET_NO":"999","PERIOD":"95.440","GP_ID":"224243598","BSTAR":"0.00045890000000","NORAD_CAT_ID":"53401","APOAPSIS":"540.709","MEAN_MOTION":"15.08801943","EPHEMERIS_TYPE":"0"},{"ELEMENT_SET_NO":"999","PERIOD":"95.437","GP_ID":"224263636","BSTAR":"0.00035806000000","NORAD_CAT_ID":"53402","MEAN_MOTION":"15.08850767","APOAPSIS":"540.629","EPHEMERIS_TYPE":"0","OBJECT_ID":"2022-097Q","ARG_OF_PERICENTER":"87.7253","EPOCH":"2023-02-02T17:56:49.777440","TLE_LINE2":"2 53402  53.2165 161.1101 0001325  87.7253 272.3891 15.08850767 27291","SEMIMAJOR_AXIS":"6917.847","RA_OF_ASC_NODE":"161.1101","LAUNCH_DATE":"2022-08-10","CLASSIFICATION_TYPE":"U","OBJECT_NAME":"STARLINK-4499","DECAY_DATE":null,"TLE_LINE1":"1 53402U 22097Q   23033.74779835  .00005417  00000-0  35806-3 0  9997","MEAN_ANOMALY":"272.3891","MEAN_MOTION_DOT":"0.00005417","OBJECT_TYPE":"PAYLOAD","MEAN_ELEMENT_THEORY":"SGP4","REV_AT_EPOCH":"2729","ECCENTRICITY":"0.00013250","PERIAPSIS":"538.796","RCS_SIZE":"LARGE","TIME_SYSTEM":"UTC","CENTER_NAME":"EARTH","INCLINATION":"53.2165","FILE":"3769192","SITE":"AFETR","MEAN_MOTION_DDOT":"0.0000000000000","REF_FRAME":"TEME","COUNTRY_CODE":"US"},{"ECCENTRICITY":"0.00013410","REV_AT_EPOCH":"2729","PERIAPSIS":"538.796","MEAN_ELEMENT_THEORY":"SGP4","MEAN_MOTION_DOT":"0.00000436","OBJECT_TYPE":"PAYLOAD","CLASSIFICATION_TYPE":"U","OBJECT_NAME":"STARLINK-4507","TLE_LINE1":"1 53403U 22097R   23033.75979213  .00000436  00000-0  45461-4 0  9996","MEAN_ANOMALY":"256.3363","DECAY_DATE":null,"MEAN_MOTION_DDOT":"0.0000000000000","REF_FRAME":"TEME","COUNTRY_CODE":"US","FILE":"3769192","SITE":"AFETR","INCLINATION":"53.2174","RCS_SIZE":"LARGE","TIME_SYSTEM":"UTC","CENTER_NAME":"EARTH","NORAD_CAT_ID":"53403","MEAN_MOTION":"15.08847126","APOAPSIS":"540.651","EPHEMERIS_TYPE":"0","GP_ID":"224263640","BSTAR":"0.00004546100000","PERIOD":"95.437","ELEMENT_SET_NO":"999","LAUNCH_DATE":"2022-08-10","TLE_LINE2":"2 53403  53.2174 161.0568 0001341 103.7779 256.3363 15.08847126 27299","SEMIMAJOR_AXIS":"6917.859","RA_OF_ASC_NODE":"161.0568","ARG_OF_PERICENTER":"103.7779","EPOCH":"2023-02-02T18:14:06.040032","OBJECT_ID":"2022-097R"},{"RA_OF_ASC_NODE":"152.0484","TLE_LINE2":"2 53404  53.2186 152.0484 0001163  79.6416 280.4707 15.08838933 27398","SEMIMAJOR_AXIS":"6917.884","LAUNCH_DATE":"2022-08-10","OBJECT_ID":"2022-097S","EPOCH":"2023-02-02T12:56:06.214848","ARG_OF_PERICENTER":"79.6416","BSTAR":"0.00002218500000","GP_ID":"224263141","MEAN_MOTION":"15.08838933","APOAPSIS":"540.553","EPHEMERIS_TYPE":"0","NORAD_CAT_ID":"53404","PERIOD":"95.438","ELEMENT_SET_NO":"999","SITE":"AFETR","FILE":"3769192","COUNTRY_CODE":"US","REF_FRAME":"TEME","MEAN_MOTION_DDOT":"0.0000000000000","TIME_SYSTEM":"UTC","CENTER_NAME":"EARTH","RCS_SIZE":"LARGE","INCLINATION":"53.2186","MEAN_ELEMENT_THEORY":"SGP4","PERIAPSIS":"538.944","REV_AT_EPOCH":"2739","ECCENTRICITY":"0.00011630","DECAY_DATE":null,"TLE_LINE1":"1 53404U 22097S   23033.53896082  .00000065  00000-0  22185-4 0  9991","MEAN_ANOMALY":"280.4707","OBJECT_NAME":"STARLINK-4509","CLASSIFICATION_TYPE":"U","OBJECT_TYPE":"PAYLOAD","MEAN_MOTION_DOT":"0.00000065"},{"OBJECT_TYPE":"PAYLOAD","MEAN_MOTION_DOT":"-0.00001730","CLASSIFICATION_TYPE":"U","TLE_LINE1":"1 53405U 22097T   23033.67789218 -.00001730  00000-0 -90647-4 0  9999","MEAN_ANOMALY":"289.3057","DECAY_DATE":null,"OBJECT_NAME":"STARLINK-4510","PERIAPSIS":"538.833","ECCENTRICITY":"0.00013850","REV_AT_EPOCH":"2728","MEAN_ELEMENT_THEORY":"SGP4","INCLINATION":"53.2158","RCS_SIZE":"LARGE","TIME_SYSTEM":"UTC","CENTER_NAME":"EARTH","COUNTRY_CODE":"US","REF_FRAME":"TEME","MEAN_MOTION_DDOT":"0.0000000000000","FILE":"3769192","SITE":"AFETR","PERIOD":"95.439","ELEMENT_SET_NO":"999","NORAD_CAT_ID":"53405","EPHEMERIS_TYPE":"0","APOAPSIS":"540.749","MEAN_MOTION":"15.08824990","GP_ID":"224263132","BSTAR":"-0.00009064700000","ARG_OF_PERICENTER":"70.8085","EPOCH":"2023-02-02T16:16:09.884352","OBJECT_ID":"2022-097T","LAUNCH_DATE":"2022-08-10","TLE_LINE2":"2 53405  53.2158 161.4340 0001385  70.8085 289.3057 15.08824990 27286","SEMIMAJOR_AXIS":"6917.926","RA_OF_ASC_NODE":"161.4340"},{"GP_ID":"224263130","BSTAR":"-0.00001373700000","NORAD_CAT_ID":"53406","APOAPSIS":"540.867","MEAN_MOTION":"15.08841578","EPHEMERIS_TYPE":"0","PERIOD":"95.437","ELEMENT_SET_NO":"999","SEMIMAJOR_AXIS":"6917.876","TLE_LINE2":"2 53406  53.2160 151.2362 0001628  90.9160 269.2019 15.08841578 27420","RA_OF_ASC_NODE":"151.2362","LAUNCH_DATE":"2022-08-10","OBJECT_ID":"2022-097U","ARG_OF_PERICENTER":"90.9160","EPOCH":"2023-02-02T17:15:45.877536","MEAN_ELEMENT_THEORY":"SGP4","ECCENTRICITY":"0.00016280","REV_AT_EPOCH":"2742","PERIAPSIS":"538.614","CLASSIFICATION_TYPE":"U","OBJECT_NAME":"STARLINK-4533","TLE_LINE1":"1 53406U 22097U   23033.71928099 -.00000507  00000-0 -13737-4 0  9993","DECAY_DATE":null,"MEAN_ANOMALY":"269.2019","MEAN_MOTION_DOT":"-0.00000507","OBJECT_TYPE":"PAYLOAD","FILE":"3769192","SITE":"AFETR","MEAN_MOTION_DDOT":"0.0000000000000","REF_FRAME":"TEME","COUNTRY_CODE":"US","RCS_SIZE":"LARGE","TIME_SYSTEM":"UTC","CENTER_NAME":"EARTH","INCLINATION":"53.2160"},{"BSTAR":"-0.00005781200000","GP_ID":"224263134","EPHEMERIS_TYPE":"0","APOAPSIS":"540.500","MEAN_MOTION":"15.08834749","NORAD_CAT_ID":"53407","ELEMENT_SET_NO":"999","PERIOD":"95.438","RA_OF_ASC_NODE":"140.2508","TLE_LINE2":"2 53407  53.2174 140.2508 0001067  89.0941 271.0173 15.08834749 27603","SEMIMAJOR_AXIS":"6917.896","LAUNCH_DATE":"2022-08-10","OBJECT_ID":"2022-097V","EPOCH":"2023-02-02T23:49:16.749408","ARG_OF_PERICENTER":"89.0941","MEAN_ELEMENT_THEORY":"SGP4","REV_AT_EPOCH":"2760","ECCENTRICITY":"0.00010670","PERIAPSIS":"539.023","OBJECT_NAME":"STARLINK-4537","TLE_LINE1":"1 53407U 22097V   23033.99255497 -.00001208  00000-0 -57812-4 0  9990","DECAY_DATE":null,"MEAN_ANOMALY":"271.0173","CLASSIFICATION_TYPE":"U","MEAN_MOTION_DOT":"-0.00001208","OBJECT_TYPE":"PAYLOAD","SITE":"AFETR","FILE":"3769192","MEAN_MOTION_DDOT":"0.0000000000000","REF_FRAME":"TEME","COUNTRY_CODE":"US","TIME_SYSTEM":"UTC","CENTER_NAME":"EARTH","RCS_SIZE":"LARGE","INCLINATION":"53.2174"},{"ELEMENT_SET_NO":"999","PERIOD":"95.438","NORAD_CAT_ID":"53408","APOAPSIS":"540.594","EPHEMERIS_TYPE":"0","MEAN_MOTION":"15.08838528","GP_ID":"224263153","BSTAR":"0.00001922600000","ARG_OF_PERICENTER":"93.9329","EPOCH":"2023-02-02T12:45:30.584736","OBJECT_ID":"2022-097W","LAUNCH_DATE":"2022-08-10","TLE_LINE2":"2 53408  53.2165 152.0831 0001220  93.9329 266.1803 15.08838528 27399","SEMIMAJOR_AXIS":"6917.885","RA_OF_ASC_NODE":"152.0831","MEAN_MOTION_DOT":"0.00000018","OBJECT_TYPE":"PAYLOAD","CLASSIFICATION_TYPE":"U","OBJECT_NAME":"STARLINK-4491","TLE_LINE1":"1 53408U 22097W   23033.53160399  .00000018  00000-0  19226-4 0  9990","MEAN_ANOMALY":"266.1803","DECAY_DATE":null,"REV_AT_EPOCH":"2739","ECCENTRICITY":"0.00012200","PERIAPSIS":"538.906","MEAN_ELEMENT_THEORY":"SGP4","INCLINATION":"53.2165","RCS_SIZE":"LARGE","CENTER_NAME":"EARTH","TIME_SYSTEM":"UTC","REF_FRAME":"TEME","MEAN_MOTION_DDOT":"0.0000000000000","COUNTRY_CODE":"US","FILE":"3769194","SITE":"AFETR"}];
